NORAD_CAT_ID,OBJECT_NAME,OBJECT_TYPE,EPOCH,MEAN_MOTION,ECCENTRICITY,INCLINATION,RA_OF_ASC_NODE,ARG_OF_PERICENTER,MEAN_ANOMALY,BSTAR,MEAN_MOTION_DOT,MEAN_MOTION_DDOT,TLE_LINE0,TLE_LINE1,TLE_LINE2,SEMIMAJOR_AXIS,PERIOD,APOGEE,PERIGEE,DECAYED
52628.0,STARLINK-4001,PAYLOAD,2022-10-11 07:38:01,15.0883913,0.0001565999999999,53.2191,114.8145,51.1643,308.9489,-4.5472e-05,-1.012e-05,0.0,0 STARLINK-4001,1 52628U 22052AG  22284.31807197 -.00001012  00000-0 -45472-4 0  9990,2 52628  53.2191 114.8145 0001566  51.1643 308.9489 15.08839130 23158,6917.8830000000025,95.438,540.831,538.665,0.0
52628.0,STARLINK-4001,PAYLOAD,2022-10-11 15:34:57,15.08838752,0.0001541,53.2191,113.3276,52.31100000000001,307.8021,4.8202e-06,-2.11e-06,0.0,0 STARLINK-4001,1 52628U 22052AG  22284.64927225 -.00000211  00000-0  48202-5 0  9995,2 52628  53.2191 113.3276 0001541  52.3110 307.8021 15.08838752 22824,6917.884,95.438,540.815,538.683,0.0
52628.0,STARLINK-4001,PAYLOAD,2022-10-12 12:14:57,15.08838517,0.0001664,53.2189,109.4623,54.9043,305.2105,3.5741e-05,2.81e-06,0.0,0 STARLINK-4001,1 52628U 22052AG  22285.51039341  .00000281  00000-0  35741-4 0  9994,2 52628  53.2189 109.4623 0001664  54.9043 305.2105 15.08838517 22950,6917.885,95.438,540.901,538.599,0.0
52628.0,STARLINK-4001,PAYLOAD,2022-10-12 18:36:30,15.08840573,0.0001784,53.2184,108.2739,54.655,305.4608,3.6369e-05,2.91e-06,0.0,0 STARLINK-4001,1 52628U 22052AG  22285.77535200  .00000291  00000-0  36369-4 0  9995,2 52628  53.2184 108.2739 0001784  54.6550 305.4608 15.08840573 23375,6917.879,95.438,540.9780000000002,538.509,0.0
52628.0,STARLINK-4001,PAYLOAD,2022-10-13 12:05:45,15.08835383,0.0001769,53.2187,105.0025,55.4701,304.6458,6.0066e-05,6.68e-06,0.0,0 STARLINK-4001,1 52628U 22052AG  22286.50399743  .00000668  00000-0  60066-4 0  9996,2 52628  53.2187 105.0025 0001769  55.4701 304.6458 15.08835383 23109,6917.895,95.438,540.9830000000002,538.536,0.0
52628.0,STARLINK-4001,PAYLOAD,2022-10-13 13:41:08,15.08837803,0.0001818,53.2187,104.7055,54.9894,305.1268,8.0669e-05,9.96e-06,0.0,0 STARLINK-4001,1 52628U 22052AG  22286.57023556  .00000996  00000-0  80669-4 0  9994,2 52628  53.2187 104.7055 0001818  54.9894 305.1268 15.08837803 23115,6917.887,95.438,541.01,538.494,0.0
52628.0,STARLINK-4001,PAYLOAD,2022-10-14 07:10:22,15.08847818,0.000183,53.2186,101.4346,55.8107,304.3058,8.0561e-05,9.95e-06,0.0,0 STARLINK-4001,1 52628U 22052AG  22287.29886933  .00000995  00000-0  80561-4 0  9990,2 52628  53.2186 101.4346 0001830  55.8107 304.3058 15.08847818 23601,6917.856,95.437,540.987,538.456,0.0
52628.0,STARLINK-4001,PAYLOAD,2022-10-14 13:31:55,15.08840563,0.0001799,53.2186,100.2449,56.6428,303.4736,1.505e-05,-4.9e-07,0.0,0 STARLINK-4001,1 52628U 22052AG  22287.56383514 -.00000049  00000-0  15050-4 0  9999,2 52628  53.2186 100.2449 0001799  56.6428 303.4736 15.08840563 23266,6917.879,95.438,540.988,538.499,0.0
52628.0,STARLINK-4001,PAYLOAD,2022-10-15 11:47:18,15.08841633,0.0001742,53.2191,96.0817,55.2384,304.8772,7.9068e-05,9.71e-06,0.0,0 STARLINK-4001,1 52628U 22052AG  22288.49119000  .00000971  00000-0  79068-4 0  9991,2 52628  53.2191  96.0817 0001742  55.2384 304.8772 15.08841633 23407,6917.875,95.437,540.945,538.535,0.0
52628.0,STARLINK-4001,PAYLOAD,2022-10-15 16:33:28,15.08841803,0.0001733999999999,53.2192,95.1896,55.8845,304.2312,5.1264e-05,5.28e-06,0.0,0 STARLINK-4001,1 52628U 22052AG  22288.68991005  .00000528  00000-0  51264-4 0  9991,2 52628  53.2192  95.1896 0001734  55.8845 304.2312 15.08841803 23812,6917.875,95.437,540.939,538.54,0.0
52628.0,STARLINK-4001,PAYLOAD,2022-10-16 11:38:06,15.08836669,0.0001717,53.2191,91.6212,53.0675,307.0474,1.5298e-06,-2.64e-06,0.0,0 STARLINK-4001,1 52628U 22052AG  22289.48479446 -.00000264  00000-0  15298-5 0  9996,2 52628  53.2191  91.6212 0001717  53.0675 307.0474 15.08836669 23933,6917.891,95.438,540.943,538.568,0.0
52628.0,STARLINK-4001,PAYLOAD,2022-10-16 16:24:15,15.0883856,0.0001659,53.2192,90.7289,53.0916,307.0228,1.5381e-05,-4.3e-07,0.0,0 STARLINK-4001,1 52628U 22052AG  22289.68351299 -.00000043  00000-0  15381-4 0  9990,2 52628  53.2192  90.7289 0001659  53.0916 307.0228 15.08838560 23581,6917.885,95.438,540.8969999999998,538.602,0.0
52628.0,STARLINK-4001,PAYLOAD,2022-10-17 03:31:56,15.08845388,0.0001761999999999,53.2194,88.6484,48.2013,311.9129,4.0729e-05,3.6000000000000007e-06,0.0,0 STARLINK-4001,1 52628U 22052AG  22290.14718742  .00000360  00000-0  40729-4 0  9998,2 52628  53.2194  88.6484 0001762  48.2013 311.9129 15.08845388 24036,6917.864000000001,95.437,540.948,538.51,0.0
52628.0,STARLINK-4001,PAYLOAD,2022-10-17 09:53:29,15.0883959,0.0001843,53.2195,87.4602,48.8364,311.2786,-5.2335e-06,-3.71e-06,0.0,0 STARLINK-4001,1 52628U 22052AG  22290.41215259 -.00000371  00000-0 -52335-5 0  9994,2 52628  53.2195  87.4602 0001843  48.8364 311.2786 15.08839590 23692,6917.882,95.438,541.0219999999998,538.472,0.0
52628.0,STARLINK-4001,PAYLOAD,2022-10-17 17:50:25,15.08837682,0.0001763,53.2196,85.9728,47.9377,312.1765,1.0288e-05,-1.24e-06,0.0,0 STARLINK-4001,1 52628U 22052AG  22290.74335331 -.00000124  00000-0  10288-4 0  9999,2 52628  53.2196  85.9728 0001763  47.9377 312.1765 15.08837682 23743,6917.887,95.438,540.972,538.533,0.0
52628.0,STARLINK-4001,PAYLOAD,2022-10-18 04:58:07,15.08839926,0.0001809,53.2197,83.8913,44.049,316.0646,6.220100000000001e-05,7.02e-06,0.0,0 STARLINK-4001,1 52628U 22052AG  22291.20703123  .00000702  00000-0  62201-4 0  9992,2 52628  53.2197  83.8913 0001809  44.0490 316.0646 15.08839926 23814,6917.880999999999,95.438,540.997,538.494,0.0
52628.0,STARLINK-4001,PAYLOAD,2022-10-18 12:55:03,15.08831091,0.0001703,53.2197,82.4038,46.673,313.4404,-9.2118e-06,-4.35e-06,0.0,0 STARLINK-4001,1 52628U 22052AG  22291.53823962 -.00000435  00000-0 -92118-5 0  9998,2 52628  53.2197  82.4038 0001703  46.6730 313.4404 15.08831091 24241,6917.908,95.438,540.951,538.595,0.0
52628.0,STARLINK-4001,PAYLOAD,2022-10-19 03:13:31,15.08840184,0.0001498,53.2206,79.7261,42.785,317.3259,-3.876e-06,-3.5000000000000016e-06,0.0,0 STARLINK-4001,1 52628U 22052AG  22292.13439413 -.00000350  00000-0 -38760-5 0  9998,2 52628  53.2206  79.7261 0001498  42.7850 317.3259 15.08840184 24334,6917.88,95.438,540.781,538.7090000000002,0.0
52628.0,STARLINK-4001,PAYLOAD,2022-10-19 09:35:04,15.08832399,0.0001751,53.2199,78.5384,45.8538,314.2598,4.2899e-05,3.95e-06,0.0,0 STARLINK-4001,1 52628U 22052AG  22292.39935885  .00000395  00000-0  42899-4 0  9994,2 52628  53.2199  78.5384 0001751  45.8538 314.2598 15.08832399 23999,6917.904,95.438,540.98,538.557,0.0
52628.0,STARLINK-4001,PAYLOAD,2022-10-19 15:56:37,15.08839879,0.000184,53.2199,77.3485,46.4688,313.6457,-0.00010723,-1.994e-05,0.0,0 STARLINK-4001,1 52628U 22052AG  22292.66431948 -.00001994  00000-0 -10723-3 0  9993,2 52628  53.2199  77.3485 0001840  46.4688 313.6457 15.08839879 24033,6917.880999999999,95.438,541.019,538.4730000000002,0.0
52628.0,STARLINK-4001,PAYLOAD,2022-10-20 11:01:14,15.08838177,0.0001796,53.2199,73.7803,48.3863,311.7283,0.00010307,1.353e-05,0.0,0 STARLINK-4001,1 52628U 22052AG  22293.45919638  .00001353  00000-0  10307-3 0  9993,2 52628  53.2199  73.7803 0001796  48.3863 311.7283 15.08838177 24534,6917.886,95.438,540.993,538.509,0.0
52628.0,STARLINK-4001,PAYLOAD,2022-10-20 15:47:23,15.08841751,0.0001720999999999,53.2199,72.8879,51.0734,309.0411,0.00012692,1.733e-05,0.0,0 STARLINK-4001,1 52628U 22052AG  22293.65791329  .00001733  00000-0  12692-3 0  9991,2 52628  53.2199  72.8879 0001721  51.0734 309.0411 15.08841751 24189,6917.875,95.437,540.931,538.549,0.0
52628.0,STARLINK-4001,PAYLOAD,2022-10-21 02:55:06,15.0883264,0.0001766999999999,53.2205,70.8079,46.3543,313.7595,3.9179e-05,3.35e-06,0.0,0 STARLINK-4001,1 52628U 22052AG  22294.12160217  .00000335  00000-0  39179-4 0  9997,2 52628  53.2205  70.8079 0001767  46.3543 313.7595 15.08832640 24252,6917.903,95.438,540.99,538.545,0.0
52628.0,STARLINK-4001,PAYLOAD,2022-10-21 18:48:57,15.08841073,0.0001757,53.22,67.8336,46.4426,313.6711,9.3313e-05,1.197e-05,0.0,0 STARLINK-4001,1 52628U 22052AG  22294.78399518  .00001197  00000-0  93313-4 0  9994,2 52628  53.2200  67.8336 0001757  46.4426 313.6711 15.08841073 24731,6917.877,95.437,540.9580000000002,538.5269999999998,0.0
52628.0,STARLINK-4001,PAYLOAD,2022-10-22 09:07:26,15.08832135,0.0001862,53.2198,65.1573,50.0929,310.0226,-6.2407e-05,-1.281e-05,0.0,0 STARLINK-4001,1 52628U 22052AG  22295.38016740 -.00001281  00000-0 -62407-4 0  9990,2 52628  53.2198  65.1573 0001862  50.0929 310.0226 15.08832135 24828,6917.904,95.438,541.058,538.481,0.0
52628.0,STARLINK-4001,PAYLOAD,2022-10-22 12:18:12,15.08833172,0.0001973,53.2207,64.5639,35.7671,324.3453,-7.7993e-05,-1.529e-05,0.0,0 STARLINK-4001,1 52628U 22052AG  22295.51264804 -.00001529  00000-0 -77993-4 0  9992,2 52628  53.2207  64.5639 0001973  35.7671 324.3453 15.08833172 24464,6917.901,95.438,541.131,538.401,0.0
52628.0,STARLINK-4001,PAYLOAD,2022-10-22 18:39:45,15.0883644,0.0001835,53.2201,63.37300000000001,47.4057,312.7089,-6.5189e-05,-1.325e-05,0.0,0 STARLINK-4001,1 52628U 22052AG  22295.77760583 -.00001325  00000-0 -65189-4 0  9993,2 52628  53.2201  63.3730 0001835  47.4057 312.7089 15.08836440 24504,6917.891,95.438,541.026,538.487,0.0
52628.0,STARLINK-4001,PAYLOAD,2022-10-23 04:12:03,15.08845806,0.0001713,53.2205,61.5897,41.3701,318.7421,5.701100000000003e-05,6.2e-06,0.0,0 STARLINK-4001,1 52628U 22052AG  22296.17503566  .00000620  00000-0  57011-4 0  9994,2 52628  53.2205  61.5897 0001713  41.3701 318.7421 15.08845806 24946,6917.863,95.437,540.913,538.543,0.0
52628.0,STARLINK-4001,PAYLOAD,2022-10-23 15:19:44,15.0885742,0.0001776999999999,53.2205,59.5094,37.8749,322.2368,0.00012373,1.683e-05,0.0,0 STARLINK-4001,1 52628U 22052AG  22296.63870381  .00001683  00000-0  12373-3 0  9998,2 52628  53.2205  59.5094 0001777  37.8749 322.2368 15.08857420 24635,6917.8269999999975,95.436,540.9209999999998,538.4630000000002,0.0
